NORAD_CAT_ID,OBJECT_NAME,OBJECT_TYPE,EPOCH,MEAN_MOTION,ECCENTRICITY,INCLINATION,RA_OF_ASC_NODE,ARG_OF_PERICENTER,MEAN_ANOMALY,BSTAR,MEAN_MOTION_DOT,MEAN_MOTION_DDOT,TLE_LINE0,TLE_LINE1,TLE_LINE2,SEMIMAJOR_AXIS,PERIOD,APOGEE,PERIGEE,DECAYED
52621.0,STARLINK-3984,PAYLOAD,2024-05-09 21:47:32,15.08831484,0.0001225,53.219,31.4046,95.8579,264.2553,0.00012542,1.708e-05,0.0,0 STARLINK-3984,1 52621U 22052Z   24130.90801016  .00001708  00000-0  12542-3 0  9995,2 52621  53.2190  31.4046 0001225  95.8579 264.2553 15.08831484110022,6917.906,95.438,540.619,538.924,0.0
52621.0,STARLINK-3984,PAYLOAD,2024-05-10 00:58:18,15.08839645,0.0001258,53.2181,30.8061,88.0203,272.0933,8.6212e-05,1.084e-05,0.0,0 STARLINK-3984,1 52621U 22052Z   24131.04048684  .00001084  00000-0  86212-4 0  9998,2 52621  53.2181  30.8061 0001258  88.0203 272.0933 15.08839645110426,6917.881,95.438,540.617,538.876,0.0
52621.0,STARLINK-3984,PAYLOAD,2024-05-10 10:30:36,15.08852534,0.0001386,53.2193,29.0227,85.9119,274.2032,0.00023927,3.523e-05,0.0,0 STARLINK-3984,1 52621U 22052Z   24131.43792017  .00003523  00000-0  23927-3 0  9990,2 52621  53.2193  29.0227 0001386  85.9119 274.2032 15.08852534110489,6917.842,95.437,540.666,538.748,0.0
52621.0,STARLINK-3984,PAYLOAD,2024-05-10 16:52:09,15.08834846,0.000169,53.22,27.8339,94.1464,265.9721,5.9361e-05,6.57e-06,0.0,0 STARLINK-3984,1 52621U 22052Z   24131.70289283  .00000657  00000-0  59361-4 0  9993,2 52621  53.2200  27.8339 0001690  94.1464 265.9721 15.08834846110524,6917.896,95.438,540.93,538.592,0.0
52621.0,STARLINK-3984,PAYLOAD,2024-05-10 21:38:19,15.08836293,0.0001565,53.2186,26.9408,89.9057,270.2115,4.2358e-05,3.86e-06,0.0,0 STARLINK-3984,1 52621U 22052Z   24131.90160993  .00000386  00000-0  42358-4 0  9998,2 52621  53.2186  26.9408 0001565  89.9057 270.2115 15.08836293110170,6917.892,95.438,540.839,538.674,0.0
52621.0,STARLINK-3984,PAYLOAD,2024-05-11 10:21:21,15.08917858,0.0001232,53.2183,24.5608,89.3566,270.7567,0.0015611,0.00024697,0.0,0 STARLINK-3984,1 52621U 22052Z   24132.43149450  .00024697  00000-0  15611-2 0  9993,2 52621  53.2183  24.5608 0001232  89.3566 270.7567 15.08917858110637,6917.642,95.433,540.36,538.655,0.0
52621.0,STARLINK-3984,PAYLOAD,2024-05-11 23:04:22,15.08978783,0.0001218,53.2183,22.182,102.5959,257.517,0.0026358,0.00042071,0.0,0 STARLINK-3984,1 52621U 22052Z   24132.96137492  .00042071  00000-0  26358-2 0  9990,2 52621  53.2183  22.1820 0001218 102.5959 257.5170 15.08978783110339,6917.456,95.429,540.164,538.479,0.0
52621.0,STARLINK-3984,PAYLOAD,2024-05-12 10:12:03,15.08909722,0.0001661,53.2179,20.1006,82.3264,277.7917,-0.00040046,-6.668e-05,0.0,0 STARLINK-3984,1 52621U 22052Z   24133.42504200 -.00006668  00000-0 -40046-3 0  9992,2 52621  53.2179  20.1006 0001661  82.3264 277.7917 15.08909722110783,6917.667,95.433,540.681,538.383,0.0
52621.0,STARLINK-3984,PAYLOAD,2024-05-12 22:55:07,15.08904256,0.0001564,53.2181,17.7194,96.4784,263.6386,0.0019112,0.00030314,0.0,0 STARLINK-3984,1 52621U 22052Z   24133.95494346  .00030314  00000-0  19112-2 0  9991,2 52621  53.2181  17.7194 0001564  96.4784 263.6386 15.08904256110489,6917.684,95.433,540.631,538.467,0.0
52621.0,STARLINK-3984,PAYLOAD,2024-05-13 02:05:52,15.08907706,0.00015,53.2182,17.1254,95.95,264.1663,0.0017747,0.00028122,0.0,0 STARLINK-3984,1 52621U 22052Z   24134.08741779  .00028122  00000-0  17747-2 0  9997,2 52621  53.2182  17.1254 0001500  95.9500 264.1663 15.08907706110882,6917.673,95.433,540.576,538.501,0.0
52621.0,STARLINK-3984,PAYLOAD,2024-05-14 01:56:34,15.08951075,0.0001534,53.2192,12.6644,98.7357,261.3809,0.0013261,0.00020944,0.0,0 STARLINK-3984,1 52621U 22052Z   24135.08095841  .00020944  00000-0  13261-2 0  9991,2 52621  53.2192  12.6644 0001534  98.7357 261.3809 15.08951075111031,6917.541,95.431,540.467,538.345,0.0
52621.0,STARLINK-3984,PAYLOAD,2024-05-14 08:18:06,15.08900585,0.0001252,53.2185,11.4754,59.4547,300.6569,0.001047,0.00016442,0.0,0 STARLINK-3984,1 52621U 22052Z   24135.34590762  .00016442  00000-0  10470-2 0  9999,2 52621  53.2185  11.4754 0001252  59.4547 300.6569 15.08900585111078,6917.695,95.434,540.426,538.694,0.0
52621.0,STARLINK-3984,PAYLOAD,2024-05-14 22:36:34,15.08856535,0.0001507,53.2187,8.7981,79.6943,280.4219,-0.00070271,-0.00011459,0.0,0 STARLINK-3984,1 52621U 22052Z   24135.94207152 -.00011459  00000-0 -70271-3 0  9994,2 52621  53.2187   8.7981 0001507  79.6943 280.4219 15.08856535110787,6917.83,95.437,540.737,538.652,0.0
52621.0,STARLINK-3984,PAYLOAD,2024-05-15 08:08:54,15.08827298,0.0001066,53.217,7.0113,355.9586,4.1397,0.0014743,0.00023245,0.0,0 STARLINK-3984,1 52621U 22052Z   24136.33952188  .00023245  00000-0  14743-2 0  9999,2 52621  53.2170   7.0113 0001066 355.9586   4.1397 15.08827298111223,6917.919,95.438,540.522,539.047,0.0
52621.0,STARLINK-3984,PAYLOAD,2024-05-15 14:30:29,15.08780824,0.0003047,53.2165,5.8213,78.0742,282.0592,-0.0013131,-0.00021094,0.0,0 STARLINK-3984,1 52621U 22052Z   24136.60450797 -.00021094  00000-0 -13131-2 0  9990,2 52621  53.2165   5.8213 0003047  78.0742 282.0592 15.08780824110880,6918.061,95.441,542.034,537.818,0.0
52621.0,STARLINK-3984,PAYLOAD,2024-05-15 20:52:02,15.08775173,0.0001781,53.2177,4.6355,87.4788,272.6408,-0.00090874,-0.00014696,0.0,0 STARLINK-3984,1 52621U 22052Z   24136.86947710 -.00014696  00000-0 -90874-3 0  9994,2 52621  53.2177   4.6355 0001781  87.4788 272.6408 15.08775173111304,6918.079,95.442,541.176,538.711,0.0
52621.0,STARLINK-3984,PAYLOAD,2024-05-16 14:21:22,15.08732946,0.0001843,53.2175,1.3626,77.3813,282.7385,-0.00039242,-6.51e-05,0.0,0 STARLINK-3984,1 52621U 22052Z   24137.59817171 -.00006510  00000-0 -39242-3 0  9990,2 52621  53.2175   1.3626 0001843  77.3813 282.7385 15.08732946111030,6918.208,95.444,541.348,538.798,0.0
52621.0,STARLINK-3984,PAYLOAD,2024-05-16 23:53:43,15.08741379,0.0002282,53.2171,359.579,73.0957,287.0285,0.0006123,9.444e-05,0.0,0 STARLINK-3984,1 52621U 22052Z   24137.99564185  .00009444  00000-0  61230-3 0  9997,2 52621  53.2171 359.5790 0002282  73.0957 287.0285 15.08741379111471,6918.182,95.444,541.626,538.468,0.0
52621.0,STARLINK-3984,PAYLOAD,2024-05-17 22:09:11,15.08782153,0.0001425,53.217,355.4208,72.4951,287.6197,0.0015099,0.00023786,0.0,0 STARLINK-3984,1 52621U 22052Z   24138.92304851  .00023786  00000-0  15099-2 0  9999,2 52621  53.2170 355.4208 0001425  72.4951 287.6197 15.08782153111231,6918.057,95.441,540.908,538.936,0.0
52621.0,STARLINK-3984,PAYLOAD,2024-05-18 07:41:31,15.0881037,0.0001238,53.2167,353.6376,77.4605,282.6525,0.0018249,0.00028851,0.0,0 STARLINK-3984,1 52621U 22052Z   24139.32049808  .00028851  00000-0  18249-2 0  9990,2 52621  53.2167 353.6376 0001238  77.4605 282.6525 15.08810370111295,6917.971,95.439,540.692,538.98,0.0
52621.0,STARLINK-3984,PAYLOAD,2024-05-18 20:24:36,15.0884575,0.0001102,53.2155,351.2566,84.8157,275.2961,0.0017782,0.0002813,0.0,0 STARLINK-3984,1 52621U 22052Z   24139.85041945  .00028130  00000-0  17782-2 0  9993,2 52621  53.2155 351.2566 0001102  84.8157 275.2961 15.08845750111754,6917.863,95.437,540.49,538.965,0.0
52621.0,STARLINK-3984,PAYLOAD,2024-05-18 23:35:21,15.08891466,0.0001024,53.2165,350.6612,98.1603,261.9506,0.0030672,0.00048935,0.0,0 STARLINK-3984,1 52621U 22052Z   24139.98288895  .00048935  00000-0  30672-2 0  9992,2 52621  53.2165 350.6612 0001024  98.1603 261.9506 15.08891466111771,6917.723,95.434,540.296,538.88,0.0
52621.0,STARLINK-3984,PAYLOAD,2024-05-19 20:15:21,15.08834685,0.0001067,53.2167,346.7947,54.9225,305.1867,-0.00016724,-2.948e-05,0.0,0 STARLINK-3984,1 52621U 22052Z   24140.84400143 -.00002948  00000-0 -16724-3 0  9990,2 52621  53.2167 346.7947 0001067  54.9225 305.1867 15.08834685111903,6917.897,95.438,540.5,539.023,0.0
52621.0,STARLINK-3984,PAYLOAD,2024-05-19 23:26:08,15.08830176,0.0001073,53.2167,346.2,45.7321,314.3759,0.0015266,0.00024085,0.0,0 STARLINK-3984,1 52621U 22052Z   24140.97648499  .00024085  00000-0  15266-2 0  9995,2 52621  53.2167 346.2000 0001073  45.7321 314.3759 15.08830176111925,6917.91,95.438,540.518,539.033,0.0
52621.0,STARLINK-3984,PAYLOAD,2024-05-20 20:06:10,15.08824799,0.0001132,53.2177,342.3312,66.5174,293.5937,0.0004796,7.35e-05,0.0,0 STARLINK-3984,1 52621U 22052Z   24141.83761821  .00007350  00000-0  47960-3 0  9999,2 52621  53.2177 342.3312 0001132  66.5174 293.5937 15.08824799112057,6917.927,95.439,540.575,539.009,0.0
52621.0,STARLINK-3984,PAYLOAD,2024-05-21 19:56:57,15.08835133,0.0001091,53.2176,337.87,64.9485,295.162,0.00036688,5.555e-05,0.0,0 STARLINK-3984,1 52621U 22052Z   24142.83122384  .00005555  00000-0  36688-3 0  9995,2 52621  53.2176 337.8700 0001091  64.9485 295.1620 15.08835133111822,6917.895,95.438,540.515,539.006,0.0
52621.0,STARLINK-3984,PAYLOAD,2024-05-22 21:23:08,15.08826758,0.0001104,53.2177,333.1152,74.7109,285.4005,2.4993e-05,1.1e-06,0.0,0 STARLINK-3984,1 52621U 22052Z   24143.89107442  .00000110  00000-0  24993-4 0  9999,2 52621  53.2177 333.1152 0001104  74.7109 285.4005 15.08826758111989,6917.921,95.438,540.55,539.022,0.0
52621.0,STARLINK-3984,PAYLOAD,2024-05-23 18:03:09,15.08841776,0.0001023,53.2168,329.2509,71.347,288.7633,0.0002505,3.701e-05,0.0,0 STARLINK-3984,1 52621U 22052Z   24144.75219367  .00003701  00000-0  25050-3 0  9998,2 52621  53.2168 329.2509 0001023  71.3470 288.7633 15.08841776112492,6917.875,95.437,540.448,539.032,0.0
52621.0,STARLINK-3984,PAYLOAD,2024-05-23 21:13:55,15.08854777,8.92e-05,53.2173,328.6527,85.9035,274.2059,0.00052797,8.128e-05,0.0,0 STARLINK-3984,1 52621U 22052Z   24144.88466861  .00008128  00000-0  52797-3 0  9991,2 52621  53.2173 328.6527 0000892  85.9035 274.2059 15.08854777112130,6917.835,95.437,540.317,539.083,0.0
52621.0,STARLINK-3984,PAYLOAD,2024-05-24 19:29:19,15.08829114,9.14e-05,53.2159,324.4873,80.6332,279.4763,-0.00025587,-4.356e-05,0.0,0 STARLINK-3984,1 52621U 22052Z   24145.81203101 -.00004356  00000-0 -25587-3 0  9999,2 52621  53.2159 324.4873 0000914  80.6332 279.4763 15.08829114112652,6917.914,95.438,540.411,539.146,0.0
